NORAD_CAT_ID,OBJECT_NAME,OBJECT_TYPE,EPOCH,MEAN_MOTION,ECCENTRICITY,INCLINATION,RA_OF_ASC_NODE,ARG_OF_PERICENTER,MEAN_ANOMALY,BSTAR,MEAN_MOTION_DOT,MEAN_MOTION_DDOT,TLE_LINE0,TLE_LINE1,TLE_LINE2,SEMIMAJOR_AXIS,PERIOD,APOGEE,PERIGEE,DECAYED
53179.0,STARLINK-4276,PAYLOAD,2024-05-11 16:54:04,15.08915269,0.0001572,53.2165,237.9327,74.348,285.7686,0.0007162,0.00011152,0.0,0 STARLINK-4276,1 53179U 22083AZ  24132.70422121  .00011152  00000-0  71620-3 0  9990,2 53179  53.2165 237.9327 0001572  74.3480 285.7686 15.08915269101867,6917.65,95.433,540.603,538.428,0.0
53179.0,STARLINK-4276,PAYLOAD,2024-05-12 13:34:09,15.08733854,0.0001391,53.217,234.0668,76.6961,283.4186,0.0016693,0.00026301,0.0,0 STARLINK-4276,1 53179U 22083AZ  24133.56538320  .00026301  00000-0  16693-2 0  9994,2 53179  53.2170 234.0668 0001391  76.6961 283.4186 15.08733854101999,6918.205,95.444,541.032,539.108,0.0
53179.0,STARLINK-4276,PAYLOAD,2024-05-13 13:24:58,15.08861582,0.0001429,53.2163,229.6067,58.1143,301.9988,0.0025218,0.00040099,0.0,0 STARLINK-4276,1 53179U 22083AZ  24134.55900990  .00040099  00000-0  25218-2 0  9993,2 53179  53.2163 229.6067 0001429  58.1143 301.9988 15.08861582102147,6917.814,95.436,540.668,538.691,0.0
53179.0,STARLINK-4276,PAYLOAD,2024-05-14 13:15:44,15.08875786,0.0001468,53.2161,225.1481,65.5304,294.5841,0.00084392,0.00013182,0.0,0 STARLINK-4276,1 53179U 22083AZ  24135.55259438  .00013182  00000-0  84392-3 0  9990,2 53179  53.2161 225.1481 0001468  65.5304 294.5841 15.08875786102292,6917.771,95.435,540.652,538.62,0.0
53179.0,STARLINK-4276,PAYLOAD,2024-05-15 05:09:35,15.08857785,0.0003372,53.216,222.171,85.705,274.4327,0.00030985,4.649e-05,0.0,0 STARLINK-4276,1 53179U 22083AZ  24136.21498987  .00004649  00000-0  30985-3 0  9995,2 53179  53.2160 222.1710 0003372  85.7050 274.4327 15.08857785102397,6917.826,95.436,542.024,537.358,0.0
53179.0,STARLINK-4276,PAYLOAD,2024-05-15 13:06:30,15.08845416,0.0001562,53.2164,220.6878,75.429,284.6875,-4.4967e-05,-1.004e-05,0.0,0 STARLINK-4276,1 53179U 22083AZ  24136.54618775 -.00001004  00000-0 -44967-4 0  9990,2 53179  53.2164 220.6878 0001562  75.4290 284.6875 15.08845416102445,6917.864,95.437,540.809,538.648,0.0
53179.0,STARLINK-4276,PAYLOAD,2024-05-15 22:38:49,15.08858637,0.0001534,53.2165,218.903,85.3239,274.7929,0.0012493,0.00019661,0.0,0 STARLINK-4276,1 53179U 22083AZ  24136.94362616  .00019661  00000-0  12493-2 0  9997,2 53179  53.2165 218.9030 0001534  85.3239 274.7929 15.08858637101862,6917.823,95.436,540.75,538.627,0.0
53179.0,STARLINK-4276,PAYLOAD,2024-05-16 11:21:54,15.08848739,0.0001055,53.2146,216.5233,93.145,266.9663,0.00071405,0.00011097,0.0,0 STARLINK-4276,1 53179U 22083AZ  24137.47354539  .00011097  00000-0  71405-3 0  9995,2 53179  53.2146 216.5233 0001055  93.1450 266.9663 15.08848739102580,6917.854,95.437,540.449,538.989,0.0
53179.0,STARLINK-4276,PAYLOAD,2024-05-16 14:32:40,15.08878084,0.0001412,53.2152,215.9292,90.7594,269.356,0.0017886,0.00028322,0.0,0 STARLINK-4276,1 53179U 22083AZ  24137.60602097  .00028322  00000-0  17886-2 0  9996,2 53179  53.2152 215.9292 0001412  90.7594 269.3560 15.08878084102606,6917.764,95.435,540.606,538.652,0.0
53179.0,STARLINK-4276,PAYLOAD,2024-05-16 22:29:35,15.08868114,0.0001601,53.2155,214.4412,95.5806,264.5369,0.0013291,0.00020944,0.0,0 STARLINK-4276,1 53179U 22083AZ  24137.93721974  .00020944  00000-0  13291-2 0  9996,2 53179  53.2155 214.4412 0001601  95.5806 264.5369 15.08868114102658,6917.794,95.436,540.767,538.552,0.0
53179.0,STARLINK-4276,PAYLOAD,2024-05-17 11:12:40,15.08857728,0.0001058,53.2155,212.0631,109.3914,250.7193,0.00093161,0.00014577,0.0,0 STARLINK-4276,1 53179U 22083AZ  24138.46713461  .00014577  00000-0  93161-3 0  9997,2 53179  53.2155 212.0631 0001058 109.3914 250.7193 15.08857728102735,6917.826,95.436,540.423,538.959,0.0
53179.0,STARLINK-4276,PAYLOAD,2024-05-17 22:20:21,15.08899434,0.0001139,53.2152,209.9765,99.5994,260.5127,0.0022969,0.00036516,0.0,0 STARLINK-4276,1 53179U 22083AZ  24138.93080035  .00036516  00000-0  22969-2 0  9997,2 53179  53.2152 209.9765 0001139  99.5994 260.5127 15.08899434102166,6917.699,95.434,540.352,538.776,0.0
53179.0,STARLINK-4276,PAYLOAD,2024-05-18 04:41:54,15.08871738,0.0004377,53.217,208.7896,84.6616,275.4876,0.0010992,0.00017266,0.0,0 STARLINK-4276,1 53179U 22083AZ  24139.19577022  .00017266  00000-0  10992-2 0  9997,2 53179  53.2170 208.7896 0004377  84.6616 275.4876 15.08871738102849,6917.783,95.436,542.676,536.62,0.0
53179.0,STARLINK-4276,PAYLOAD,2024-05-18 11:03:26,15.08836078,0.0001614,53.2159,207.6012,88.8566,271.2611,0.0020371,0.00032278,0.0,0 STARLINK-4276,1 53179U 22083AZ  24139.46072900  .00032278  00000-0  20371-2 0  9994,2 53179  53.2159 207.6012 0001614  88.8566 271.2611 15.08836078102888,6917.892,95.438,540.874,538.641,0.0
53179.0,STARLINK-4276,PAYLOAD,2024-05-19 04:32:41,15.08856532,0.0001594,53.2152,204.328,88.0938,272.0236,0.0016753,0.00026487,0.0,0 STARLINK-4276,1 53179U 22083AZ  24140.18937124  .00026487  00000-0  16753-2 0  9997,2 53179  53.2152 204.3280 0001594  88.0938 272.0236 15.08856532102995,6917.83,95.437,540.798,538.592,0.0
53179.0,STARLINK-4276,PAYLOAD,2024-05-19 10:54:14,15.08795645,0.0001278,53.2167,203.1407,95.7603,264.3535,0.0010003,0.00015648,0.0,0 STARLINK-4276,1 53179U 22083AZ  24140.45433801  .00015648  00000-0  10003-2 0  9999,2 53179  53.2167 203.1407 0001278  95.7603 264.3535 15.08795645102399,6918.016,95.44,540.765,538.997,0.0
53179.0,STARLINK-4276,PAYLOAD,2024-05-20 09:09:39,15.08839147,0.0001382,53.2163,198.9786,88.648,271.467,0.0014137,0.00022282,0.0,0 STARLINK-4276,1 53179U 22083AZ  24141.38171206  .00022282  00000-0  14137-2 0  9994,2 53179  53.2163 198.9786 0001382  88.6480 271.4670 15.08839147103178,6917.883,95.438,540.704,538.792,0.0
53179.0,STARLINK-4276,PAYLOAD,2024-05-21 04:14:17,15.08845844,0.000146,53.2159,195.4083,93.3855,266.7304,0.00060552,9.364e-05,0.0,0 STARLINK-4276,1 53179U 22083AZ  24142.17659224  .00009364  00000-0  60552-3 0  9992,2 53179  53.2159 195.4083 0001460  93.3855 266.7304 15.08845844103296,6917.863,95.437,540.738,538.718,0.0
53179.0,STARLINK-4276,PAYLOAD,2024-05-21 09:00:26,15.08837653,0.0001374,53.2162,194.5174,100.7031,259.4116,0.00028408,4.236e-05,0.0,0 STARLINK-4276,1 53179U 22083AZ  24142.37531185  .00004236  00000-0  28408-3 0  9996,2 53179  53.2162 194.5174 0001374 100.7031 259.4116 15.08837653102685,6917.888,95.438,540.703,538.802,0.0
53179.0,STARLINK-4276,PAYLOAD,2024-05-22 10:26:37,15.08842904,0.0001292,53.2154,189.7594,96.2482,263.8657,0.00048066,7.371e-05,0.0,0 STARLINK-4276,1 53179U 22083AZ  24143.43515643  .00007371  00000-0  48066-3 0  9990,2 53179  53.2154 189.7594 0001292  96.2482 263.8657 15.08842904103489,6917.872,95.437,540.63,538.843,0.0
53179.0,STARLINK-4276,PAYLOAD,2024-05-23 10:17:24,15.08847048,0.0001297,53.2147,185.2993,93.7704,266.3437,0.00025947,3.845e-05,0.0,0 STARLINK-4276,1 53179U 22083AZ  24144.42875385  .00003845  00000-0  25947-3 0  9997,2 53179  53.2147 185.2993 0001297  93.7704 266.3437 15.08847048103634,6917.859,95.437,540.621,538.827,0.0
53179.0,STARLINK-4276,PAYLOAD,2024-05-24 02:11:15,15.0884484,0.0001423,53.2149,182.3267,82.5144,277.601,0.0001564,2.202e-05,0.0,0 STARLINK-4276,1 53179U 22083AZ  24145.09115459  .00002202  00000-0  15640-3 0  9995,2 53179  53.2149 182.3267 0001423  82.5144 277.6010 15.08844840103733,6917.866,95.437,540.715,538.746,0.0
53179.0,STARLINK-4276,PAYLOAD,2024-05-24 10:08:11,15.08845787,0.0001288,53.2147,180.8379,83.1937,276.9202,0.00014871,2.08e-05,0.0,0 STARLINK-4276,1 53179U 22083AZ  24145.42235390  .00002080  00000-0  14871-3 0  9998,2 53179  53.2147 180.8379 0001288  83.1937 276.9202 15.08845787103145,6917.863,95.437,540.619,538.837,0.0
53179.0,STARLINK-4276,PAYLOAD,2024-05-24 19:40:29,15.08849698,0.0001311,53.2149,179.0547,79.7818,280.3322,0.00020324,2.949e-05,0.0,0 STARLINK-4276,1 53179U 22083AZ  24145.81979063  .00002949  00000-0  20324-3 0  9997,2 53179  53.2149 179.0547 0001311  79.7818 280.3322 15.08849698103204,6917.851,95.437,540.623,538.809,0.0
53179.0,STARLINK-4276,PAYLOAD,2024-05-25 02:02:03,15.08835675,0.0001463,53.2153,177.8656,84.2491,275.8668,-2.4193e-05,-6.73e-06,0.0,0 STARLINK-4276,1 53179U 22083AZ  24146.08475805 -.00000673  00000-0 -24193-4 0  9995,2 53179  53.2153 177.8656 0001463  84.2491 275.8668 15.08835675103888,6917.894,95.438,540.771,538.747,0.0
53179.0,STARLINK-4276,PAYLOAD,2024-05-25 08:23:35,15.08835782,0.0001391,53.2148,176.6762,82.5274,277.5877,1.153e-06,-2.7e-06,0.0,0 STARLINK-4276,1 53179U 22083AZ  24146.34971865 -.00000270  00000-0  11530-5 0  9995,2 53179  53.2148 176.6762 0001391  82.5274 277.5877 15.08835782103281,6917.893,95.438,540.721,538.796,0.0
53179.0,STARLINK-4276,PAYLOAD,2024-05-26 05:03:36,15.08842315,0.0001358,53.2151,172.8102,87.4488,272.666,0.00015507,2.181e-05,0.0,0 STARLINK-4276,1 53179U 22083AZ  24147.21083648  .00002181  00000-0  15507-3 0  9993,2 53179  53.2151 172.8102 0001358  87.4488 272.6660 15.08842315104057,6917.873,95.437,540.678,538.799,0.0
53179.0,STARLINK-4276,PAYLOAD,2024-05-26 11:25:08,15.08844453,0.0001364,53.2154,171.6207,88.4467,271.6681,0.00017743,2.537e-05,0.0,0 STARLINK-4276,1 53179U 22083AZ  24147.47579554  .00002537  00000-0  17743-3 0  9996,2 53179  53.2154 171.6207 0001364  88.4467 271.6681 15.08844453103458,6917.867,95.437,540.675,538.788,0.0
53179.0,STARLINK-4276,PAYLOAD,2024-05-27 04:54:23,15.08837858,0.0001325,53.2161,168.3484,91.8295,268.2849,0.00019313,2.787e-05,0.0,0 STARLINK-4276,1 53179U 22083AZ  24148.20443873  .00002787  00000-0  19313-3 0  9994,2 53179  53.2161 168.3484 0001325  91.8295 268.2849 15.08837858104203,6917.887,95.438,540.669,538.835,0.0
53179.0,STARLINK-4276,PAYLOAD,2024-05-27 08:05:09,15.08836523,0.0001368,53.2157,167.7535,86.6813,273.4335,0.00015566,2.19e-05,0.0,0 STARLINK-4276,1 53179U 22083AZ  24148.33691994  .00002190  00000-0  15566-3 0  9991,2 53179  53.2157 167.7535 0001368  86.6813 273.4335 15.08836523103589,6917.891,95.438,540.702,538.81,0.0
